ONEWEB-0300             
1 49089U 21075Q   25061.57710314  .00000330  00000+0  88225-3 0  9990
2 49089  87.8797  84.5332 0002078 102.1283 258.0078 13.12443347174337
ONEWEB-0301             
1 49090U 21075R   25061.56087195 -.00000201  00000+0 -59327-3 0  9995
2 49090  87.8799  84.5415 0002088 100.5600 259.5764 13.12444514172703
ONEWEB-0302             
1 49091U 21075S   25061.62413547 -.00000423  00000+0 -12124-2 0  9996
2 49091  87.8802  84.5292 0001882  79.7895 280.3445 13.12442372173693
ONEWEB-0304             
1 49092U 21075T   25061.60473216 -.00000008  00000+0 -52674-4 0  9999
2 49092  87.9021  99.8142 0001758  93.1619 266.9713 13.17647469172457
ONEWEB-0305             
1 49093U 21075U   25061.59797607  .00000012  00000+0 -24347-5 0  9992
2 49093  87.9019  99.7960 0001476  98.4711 261.6587 13.17648001172476
ONEWEB-0308             
1 49094U 21075V   25061.54140975 -.00000379  00000+0 -10891-2 0  9991
2 49094  87.8800  84.5420 0001940  94.3956 265.7394 13.12441532172699
ONEWEB-0309             
1 49095U 21075W   25061.60136236 -.00000006  00000+0 -48103-4 0  9990
2 49095  87.9022  99.8081 0002024  81.2715 278.8646 13.17647944172461
ONEWEB-0310             
1 49096U 21075X   25061.55599752 -.00000342  00000+0 -98517-3 0  9997
2 49096  87.8807  84.5710 0001942  88.7400 271.3951 13.12444198173327
